TDRS 7                  
1 23613U 95035B   26087.72197429 -.00000251  00000+0  00000+0 0  9998
2 23613  13.4109 348.7422 0009219  54.0130 132.3570  1.00270113112447
